{"type": "FeatureCollection", "features": [ {"type": "Feature", "properties": {"norad_id": 30529, "name": "FENGYUN 1C DEB", "group": "fengyun-1c-debris", "lat": 60.35088211319195, "lon": -112.02771670942624, "alt_km": 1158.313743960989, "timestamp": "2025-12-06T14:35:37.403055+00:00", "meta": {"OBJECT_NAME": "FENGYUN 1C DEB", "OBJECT_ID": "1999-025AJT", "EPOCH": "2025-11-29T05:27:15.583680", "MEAN_MOTION": 13.71563264, "ECCENTRICITY": 0.02312369, "INCLINATION": 98.4867, "RA_OF_ASC_NODE": 256.6436, "ARG_OF_PERICENTER": 258.7814, "MEAN_ANOMALY": 98.7267, "EPHEMERIS_TYPE": 0, "CLASSIFICATION_TYPE": "U", "NORAD_CAT_ID": 30529, "ELEMENT_SET_NO": 999, "REV_AT_EPOCH": 93823, "BSTAR": 0.0010152988, "MEAN_MOTION_DOT": 1.068e-05, "MEAN_MOTION_DDOT": 0}, "tle": {"line1": "1 30529U 99025AJT 25333.22726370  .00001068  00000+0  10153-2 0  9995", "line2": "2 30529  98.4867 256.6436 0231236 258.7814  98.7267 13.71563264938239"}}, "geometry": {"type": "Point", "coordinates": [-112.02771670942624, 60.35088211319195]}}, {"type": "Feature", "properties": {"norad_id": 30530, "name": "FENGYUN 1C DEB", "group": "fengyun-1c-debris", "lat": 37.77631809336835, "lon": 12.555031352083077, "alt_km": 797.8505791631515, "timestamp": "2025-12-06T14:35:37.403065+00:00", "meta": {"OBJECT_NAME": "FENGYUN 1C DEB", "OBJECT_ID": "1999-025AJU", "EPOCH": "2025-12-06T01:19:32.495808", "MEAN_MOTION": 14.36767066, "ECCENTRICITY": 0.00999494, "INCLINATION": 98.3971, "RA_OF_ASC_NODE": 18.5893, "ARG_OF_PERICENTER": 156.6203, "MEAN_ANOMALY": 264.9437, "EPHEMERIS_TYPE": 0, "CLASSIFICATION_TYPE": "U", "NORAD_CAT_ID": 30530, "ELEMENT_SET_NO": 999, "REV_AT_EPOCH": 98689, "BSTAR": 0.00044108606, "MEAN_MOTION_DOT": 1.334e-05, "MEAN_MOTION_DDOT": 0}, "tle": {"line1": "1 30530U 99025AJU 25340.05523722  .00001334  00000+0  44109-3 0  9997", "line2": "2 30530  98.3971  18.5893 0099949 156.6203 264.9437 14.36767066986898"}}, "geometry": {"type": "Point", "coordinates": [12.555031352083077, 37.77631809336835]}}, {"type": "Feature", "properties": {"norad_id": 30531, "name": "FENGYUN 1C DEB", "group": "fengyun-1c-debris", "lat": -63.891374030968876, "lon": -42.65572681855873, "alt_km": 676.7581523783037, "timestamp": "2025-12-06T14:35:37.403080+00:00", "meta": {"OBJECT_NAME": "FENGYUN 1C DEB", "OBJECT_ID": "1999-025AJV", "EPOCH": "2025-12-05T11:10:42.134880", "MEAN_MOTION": 14.61378033, "ECCENTRICITY": 0.00291798, "INCLINATION": 102.3087, "RA_OF_ASC_NODE": 162.1082, "ARG_OF_PERICENTER": 225.1635, "MEAN_ANOMALY": 134.7179, "EPHEMERIS_TYPE": 0, "CLASSIFICATION_TYPE": "U", "NORAD_CAT_ID": 30531, "ELEMENT_SET_NO": 999, "REV_AT_EPOCH": 97589, "BSTAR": 0.007224139, "MEAN_MOTION_DOT": 0.00036069, "MEAN_MOTION_DDOT": 0}, "tle": {"line1": "1 30531U 99025AJV 25339.46576545  .00036069  00000+0  72241-2 0  9992", "line2": "2 30531 102.3087 162.1082 0029179 225.1635 134.7179 14.61378033975893"}}, "geometry": {"type": "Point", "coordinates": [-42.65572681855873, -63.891374030968876]}}, {"type": "Feature", "properties": {"norad_id": 30532, "name": "FENGYUN 1C DEB", "group": "fengyun-1c-debris", "lat": 78.18448137451222, "lon": -9.448944543604833, "alt_km": 513.3598388417186, "timestamp": "2025-12-06T14:35:37.403090+00:00", "meta": {"OBJECT_NAME": "FENGYUN 1C DEB", "OBJECT_ID": "1999-025AJW", "EPOCH": "2025-12-06T01:36:30.283488", "MEAN_MOTION": 15.20750077, "ECCENTRICITY": 0.0027601, "INCLINATION": 96.9621, "RA_OF_ASC_NODE": 25.7932, "ARG_OF_PERICENTER": 279.1673, "MEAN_ANOMALY": 80.6441, "EPHEMERIS_TYPE": 0, "CLASSIFICATION_TYPE": "U", "NORAD_CAT_ID": 30532, "ELEMENT_SET_NO": 999, "REV_AT_EPOCH": 97586, "BSTAR": 0.014940639, "MEAN_MOTION_DOT": 0.00347358, "MEAN_MOTION_DDOT": 0}, "tle": {"line1": "1 30532U 99025AJW 25340.06701717  .00347358  00000+0  14941-1 0  9990", "line2": "2 30532  96.9621  25.7932 0027601 279.1673  80.6441 15.20750077975869"}}, "geometry": {"type": "Point", "coordinates": [-9.448944543604833, 78.18448137451222]}}, {"type": "Feature", "properties": {"norad_id": 30533, "name": "FENGYUN 1C DEB", "group": "fengyun-1c-debris", "lat": 39.58445618161772, "lon": 101.70025011162889, "alt_km": 746.8253287760572, "timestamp": "2025-12-06T14:35:37.403101+00:00", "meta": {"OBJECT_NAME": "FENGYUN 1C DEB", "OBJECT_ID": "1999-025AJX", "EPOCH": "2025-12-05T20:48:48.743712", "MEAN_MOTION": 14.53461308, "ECCENTRICITY": 0.00835558, "INCLINATION": 98.835, "RA_OF_ASC_NODE": 108.3081, "ARG_OF_PERICENTER": 169.8906, "MEAN_ANOMALY": 316.8769, "EPHEMERIS_TYPE": 0, "CLASSIFICATION_TYPE": "U", "NORAD_CAT_ID": 30533, "ELEMENT_SET_NO": 999, "REV_AT_EPOCH": 97721, "BSTAR": 0.0070516742, "MEAN_MOTION_DOT": 0.00030852, "MEAN_MOTION_DDOT": 0}, "tle": {"line1": "1 30533U 99025AJX 25339.86723083  .00030852  00000+0  70517-2 0  9997", "line2": "2 30533  98.8350 108.3081 0083555 169.8906 316.8769 14.53461308977216"}}, "geometry": {"type": "Point", "coordinates": [101.70025011162889, 39.58445618161772]}}, {"type": "Feature", "properties": {"norad_id": 30539, "name": "FENGYUN 1C DEB", "group": "fengyun-1c-debris", "lat": 81.08455799081204, "lon": -124.4968758303924, "alt_km": 774.8438338833403, "timestamp": "2025-12-06T14:35:37.403111+00:00", "meta": {"OBJECT_NAME": "FENGYUN 1C DEB", "OBJECT_ID": "1999-025AKD", "EPOCH": "2025-12-05T21:40:54.265440", "MEAN_MOTION": 14.55329268, "ECCENTRICITY": 0.01158348, "INCLINATION": 98.8786, "RA_OF_ASC_NODE": 319.9295, "ARG_OF_PERICENTER": 296.714, "MEAN_ANOMALY": 62.2236, "EPHEMERIS_TYPE": 0, "CLASSIFICATION_TYPE": "U", "NORAD_CAT_ID": 30539, "ELEMENT_SET_NO": 999, "REV_AT_EPOCH": 99266, "BSTAR": 0.0010158123, "MEAN_MOTION_DOT": 4.765e-05, "MEAN_MOTION_DDOT": 0}, "tle": {"line1": "1 30539U 99025AKD 25339.90340585  .00004765  00000+0  10158-2 0  9999", "line2": "2 30539  98.8786 319.9295 0115834 296.7140  62.2236 14.55329268992665"}}, "geometry": {"type": "Point", "coordinates": [-124.4968758303924, 81.08455799081204]}}, {"type": "Feature", "properties": {"norad_id": 30540, "name": "FENGYUN 1C DEB", "group": "fengyun-1c-debris", "lat": 80.7379351222328, "lon": 15.349352872465026, "alt_km": 739.8703437677532, "timestamp": "2025-12-06T14:35:37.403131+00:00", "meta": {"OBJECT_NAME": "FENGYUN 1C DEB", "OBJECT_ID": "1999-025AKE", "EPOCH": "2025-12-06T05:54:13.573152", "MEAN_MOTION": 14.32173432, "ECCENTRICITY": 0.0052194, "INCLINATION": 98.8793, "RA_OF_ASC_NODE": 88.4361, "ARG_OF_PERICENTER": 81.6737, "MEAN_ANOMALY": 299.8603, "EPHEMERIS_TYPE": 0, "CLASSIFICATION_TYPE": "U", "NORAD_CAT_ID": 30540, "ELEMENT_SET_NO": 999, "REV_AT_EPOCH": 97193, "BSTAR": 0.0037320575, "MEAN_MOTION_DOT": 0.00010169, "MEAN_MOTION_DDOT": 0}, "tle": {"line1": "1 30540U 99025AKE 25340.24599043  .00010169  00000+0  37321-2 0  9991", "line2": "2 30540  98.8793  88.4361 0052194  81.6737 299.8603 14.32173432971937"}}, "geometry": {"type": "Point", "coordinates": [15.349352872465026, 80.7379351222328]}}, {"type": "Feature", "properties": {"norad_id": 30541, "name": "FENGYUN 1C DEB", "group": "fengyun-1c-debris", "lat": -36.716662289500775, "lon": 33.78182263272866, "alt_km": 831.7839493895644, "timestamp": "2025-12-06T14:35:37.403165+00:00", "meta": {"OBJECT_NAME": "FENGYUN 1C DEB", "OBJECT_ID": "1999-025AKF", "EPOCH": "2025-12-05T13:27:20.380320", "MEAN_MOTION": 14.22997865, "ECCENTRICITY": 0.00186719, "INCLINATION": 98.6952, "RA_OF_ASC_NODE": 26.1939, "ARG_OF_PERICENTER": 105.9576, "MEAN_ANOMALY": 254.3661, "EPHEMERIS_TYPE": 0, "CLASSIFICATION_TYPE": "U", "NORAD_CAT_ID": 30541, "ELEMENT_SET_NO": 999, "REV_AT_EPOCH": 97225, "BSTAR": 0.0021981633, "MEAN_MOTION_DOT": 4.918e-05, "MEAN_MOTION_DDOT": 0}, "tle": {"line1": "1 30541U 99025AKF 25339.56065255  .00004918  00000+0  21982-2 0  9999", "line2": "2 30541  98.6952  26.1939 0018671 105.9576 254.3661 14.22997865972255"}}, "geometry": {"type": "Point", "coordinates": [33.78182263272866, -36.716662289500775]}}, {"type": "Feature", "properties": {"norad_id": 30542, "name": "FENGYUN 1C DEB", "group": "fengyun-1c-debris", "lat": -4.0803953276481835, "lon": -171.10335076000152, "alt_km": 892.8454015566713, "timestamp": "2025-12-06T14:35:37.403176+00:00", "meta": {"OBJECT_NAME": "FENGYUN 1C DEB", "OBJECT_ID": "1999-025AKG", "EPOCH": "2025-12-06T00:21:06.403680", "MEAN_MOTION": 14.06968263, "ECCENTRICITY": 0.00277699, "INCLINATION": 98.7878, "RA_OF_ASC_NODE": 8.9523, "ARG_OF_PERICENTER": 353.4556, "MEAN_ANOMALY": 66.5975, "EPHEMERIS_TYPE": 0, "CLASSIFICATION_TYPE": "U", "NORAD_CAT_ID": 30542, "ELEMENT_SET_NO": 999, "REV_AT_EPOCH": 96824, "BSTAR": 0.00033500574, "MEAN_MOTION_DOT": 5.18e-06, "MEAN_MOTION_DDOT": 0}, "tle": {"line1": "1 30542U 99025AKG 25340.01465745  .00000518  00000+0  33501-3 0  9993", "line2": "2 30542  98.7878   8.9523 0027769 353.4556  66.5975 14.06968263968244"}}, "geometry": {"type": "Point", "coordinates": [-171.10335076000152, -4.0803953276481835]}}, {"type": "Feature", "properties": {"norad_id": 30543, "name": "FENGYUN 1C DEB", "group": "fengyun-1c-debris", "lat": -29.42206241238643, "lon": -4.6196571629003405, "alt_km": 877.4345368628337, "timestamp": "2025-12-06T14:35:37.403186+00:00", "meta": {"OBJECT_NAME": "FENGYUN 1C DEB", "OBJECT_ID": "1999-025AKH", "EPOCH": "2025-12-06T06:28:38.280864", "MEAN_MOTION": 14.03730438, "ECCENTRICITY": 0.00726769, "INCLINATION": 98.8327, "RA_OF_ASC_NODE": 350.0209, "ARG_OF_PERICENTER": 51.4953, "MEAN_ANOMALY": 11.5742, "EPHEMERIS_TYPE": 0, "CLASSIFICATION_TYPE": "U", "NORAD_CAT_ID": 30543, "ELEMENT_SET_NO": 999, "REV_AT_EPOCH": 96414, "BSTAR": 0.00051863805, "MEAN_MOTION_DOT": 7.93e-06, "MEAN_MOTION_DDOT": 0}, "tle": {"line1": "1 30543U 99025AKH 25340.26988751  .00000793  00000+0  51864-3 0  9995", "line2": "2 30543  98.8327 350.0209 0072676  51.4953  11.5742 14.03730438964145"}}, "geometry": {"type": "Point", "coordinates": [-4.6196571629003405, -29.42206241238643]}}]}